{
    "links": {
        "self": "http://www.neowsapp.com/rest/v1/neo/3844025?api_key=iIulBulltgU6a56xZRHN4H3l9WmuAYTsLGpBGhQ2"
    },
    "id": "3844025",
    "neo_reference_id": "3844025",
    "name": "(2019 SN3)",
    "designation": "2019 SN3",
    "nasa_jpl_url": "http://ssd.jpl.nasa.gov/sbdb.cgi?sstr=3844025",
    "absolute_magnitude_h": 26.5,
    "estimated_diameter": {
        "kilometers": {
            "estimated_diameter_min": 0.0133215567,
            "estimated_diameter_max": 0.0297879063
        },
        "meters": {
            "estimated_diameter_min": 13.3215566698,
            "estimated_diameter_max": 29.7879062798
        },
        "miles": {
            "estimated_diameter_min": 0.008277629,
            "estimated_diameter_max": 0.0185093411
        },
        "feet": {
            "estimated_diameter_min": 43.7058959846,
            "estimated_diameter_max": 97.7293544391
        }
    },
    "is_potentially_hazardous_asteroid": false,
    "close_approach_data": [
        {
            "close_approach_date": "2003-11-16",
            "close_approach_date_full": "2003-Nov-16 05:59",
            "epoch_date_close_approach": 1068962340000,
            "relative_velocity": {
                "kilometers_per_second": "7.7699093807",
                "kilometers_per_hour": "27971.6737703411",
                "miles_per_hour": "17380.5102935767"
            },
            "miss_distance": {
                "astronomical": "0.0172922295",
                "lunar": "6.7266772755",
                "kilometers": "2586880.700751165",
                "miles": "1607413.130709477"
            },
            "orbiting_body": "Earth"
        },
        {
            "close_approach_date": "2019-09-30",
            "close_approach_date_full": "2019-Sep-30 11:45",
            "epoch_date_close_approach": 1569843900000,
            "relative_velocity": {
                "kilometers_per_second": "7.6860860404",
                "kilometers_per_hour": "27669.9097454415",
                "miles_per_hour": "17193.0058637717"
            },
            "miss_distance": {
                "astronomical": "0.0056512306",
                "lunar": "2.1983287034",
                "kilometers": "845412.060638822",
                "miles": "525314.6953148636"
            },
            "orbiting_body": "Earth"
        },
        {
            "close_approach_date": "2019-09-30",
            "close_approach_date_full": "2019-Sep-30 13:33",
            "epoch_date_close_approach": 1569850380000,
            "relative_velocity": {
                "kilometers_per_second": "8.7264605473",
                "kilometers_per_hour": "31415.257970306",
                "miles_per_hour": "19520.2195982715"
            },
            "miss_distance": {
                "astronomical": "0.0078788529",
                "lunar": "3.0648737781",
                "kilometers": "1178659.611883323",
                "miles": "732385.1216749374"
            },
            "orbiting_body": "Moon"
        }
    ],
    "orbital_data": {
        "orbit_id": "6",
        "orbit_determination_date": "2019-12-04 07:19:33",
        "first_observation_date": "2019-09-23",
        "last_observation_date": "2019-09-30",
        "data_arc_in_days": 7,
        "observations_used": 28,
        "orbit_uncertainty": "7",
        "minimum_orbit_intersection": ".00331176",
        "jupiter_tisserand_invariant": "3.788",
        "epoch_osculation": "2459000.5",
        "eccentricity": ".4888786742872321",
        "semi_major_axis": "1.904279811467201",
        "inclination": ".8626646149394263",
        "ascending_node_longitude": "176.1825438693723",
        "orbital_period": "959.830556372287",
        "perihelion_distance": ".9733180217651755",
        "perihelion_argument": "216.1970086414526",
        "aphelion_distance": "2.835241601169226",
        "perihelion_time": "2458777.760114002589",
        "mean_anomaly": "83.54220276351187",
        "mean_motion": ".3750662006017317",
        "equinox": "J2000",
        "orbit_class": {
            "orbit_class_type": "APO",
            "orbit_class_description": "Near-Earth asteroid orbits which cross the Earth’s orbit similar to that of 1862 Apollo",
            "orbit_class_range": "a (semi-major axis) > 1.0 AU; q (perihelion) < 1.017 AU"
        }
    },
    "is_sentry_object": false
}